line1,line2,classification,launch_year,launch_number,launch_piece,epoch_year,epoch_day,mean_motion_dot,mean_motion_ddot,bstar,ephemeris_type,element_number,satellite_number,inclination,ra_of_asc_node,eccentricity,arg_of_perigee,mean_anomaly,mean_motion,rev_at_epoch,datetime,x,y,z,cartesian_cords,NORAD_CAT_ID,OBJECT_TYPE,SATNAME,SITE,Operator/Owner,Users,Purpose,anom_inclination,anom_ra_of_asc_node,anom_eccentricity,anom_arg_of_perigee,anom_mean_anomaly,anom_mean_motion,anom_count
1 00877U 64053B   21339.92746813 -.00000035  00000-0  17906-4 0  9994,2 00877  65.0770 201.1119 0071161 202.9981 156.7928 14.59456986 39772,U,64,053,B,21,339.92746813,-3.5e-07,0.0,0.0,0,999,877,65.077,201.1119,0.0071161,202.9981,156.7928,14.59456986,3977,2021-12-05 22:15:33.246432,-6655.877030828403,-2532.4463027410256,14.013255434388725,[-6655.87703083 -2532.44630274    14.01325543],877,ROCKET BODY,SL-3 R/B,TTMTR,0,0,0,0.0,0.0,0.0,0.0,0.0,0.0,0.0
1   877U 64053B   21339.85894428 -.00000035  00000-0  17796-4 0  9999,2   877  65.0770 201.3121 0071168 203.0236 156.7670 14.59456976 39761,U,64,053,B,21,339.85894428,-3.5e-07,0.0,0.0,0,999,877,65.077,201.3121,0.0071168,203.0236,156.767,14.59456976,3976,2021-12-05 20:36:52.785792,-6646.982359956898,-2555.6895001321345,14.00210596398163,[-6646.98235996 -2555.68950013    14.00210596],877,ROCKET BODY,SL-3 R/B,TTMTR,0,0,0,0.0,0.0,0.0,0.0,0.0,0.0,0.0
1 00877U 64053B   21339.10518200 -.00000030  00000-0  18947-4 0  9992,2 00877  65.0770 203.5150 0071247 203.2943 156.4923 14.59456837 39654,U,64,053,B,21,339.105182,-3e-07,0.0,0.0,0,999,877,65.077,203.515,0.0071247,203.2943,156.4923,14.59456837,3965,2021-12-05 02:31:27.724800,-6543.794861039305,-2809.2829348736127,13.776552673081504,[-6543.79486104 -2809.28293487    13.77655267],877,ROCKET BODY,SL-3 R/B,TTMTR,0,0,0,0.0,0.0,0.0,0.0,0.0,0.0,0.0
1 00877U 64053B   21338.89961043 -.00000029  00000-0  19074-4 0  9994,2 00877  65.0770 204.1158 0071272 203.3626 156.4230 14.59456807 39621,U,64,053,B,21,338.89961043,-2.9e-07,0.0,0.0,0,999,877,65.077,204.1158,0.0071272,203.3626,156.423,14.59456807,3962,2021-12-04 21:35:26.341152,-6513.970072984335,-2877.7435334956904,13.715482469512532,[-6513.97007298 -2877.7435335     13.71548247],877,ROCKET BODY,SL-3 R/B,TTMTR,0,0,0,0.0,0.0,0.0,0.0,0.0,0.0,0.0
1   877U 64053B   21338.76256269 -.00000024  00000-0  20143-4 0  9991,2   877  65.0770 204.5163 0071289 203.4099 156.3751 14.59456832 39607,U,64,053,B,21,338.76256269,-2.4e-07,0.0,0.0,0,999,877,65.077,204.5163,0.0071289,203.4099,156.3751,14.59456832,3960,2021-12-04 18:18:05.416416,-6493.6880137189255,-2923.208775317584,13.684032835554856,[-6493.68801372 -2923.20877532    13.68403284],877,ROCKET BODY,SL-3 R/B,TTMTR,0,0,0,0.0,0.0,0.0,0.0,0.0,0.0,0.0
1 00877U 64053B   21338.00880028 -.00000014  00000-0  22241-4 0  9994,2 00877  65.0770 206.7193 0071370 203.6849 156.0960 14.59456716 39497,U,64,053,B,21,338.00880028,-1.4e-07,0.0,0.0,0,999,877,65.077,206.7193,0.007137,203.6849,156.096,14.59456716,3949,2021-12-04 00:12:40.344192,-6376.481357001228,-3170.6447135140556,13.426193881140577,[-6376.481357   -3170.64471351    13.42619388],877,ROCKET BODY,SL-3 R/B,TTMTR,0,0,0,0.0,0.0,0.0,0.0,0.0,0.0,0.0
1   877U 64053B   21337.39208554 -.00000018  00000-0  21406-4 0  9999,2   877  65.0771 208.5216 0071433 203.9062 155.8716 14.59456581 39401,U,64,053,B,21,337.39208554,-1.8e-07,0.0,0.0,0,999,877,65.0771,208.5216,0.0071433,203.9062,155.8716,14.59456581,3940,2021-12-03 09:24:36.190656,-6273.570129682706,-3369.611439291057,13.222604552575742,[-6273.57012968 -3369.61143929    13.22260455],877,ROCKET BODY,SL-3 R/B,TTMTR,0,0,0,0.0,0.0,0.0,0.0,0.0,0.0,0.0
1 00877U 64053B   21336.91241845 -.00000021  00000-0  20712-4 0  9999,2 00877  65.0771 209.9235 0071494 204.0793 155.6959 14.59456478 39331,U,64,053,B,21,336.91241845,-2.1e-07,0.0,0.0,0,999,877,65.0771,209.9235,0.0071494,204.0793,155.6959,14.59456478,3933,2021-12-02 21:53:52.954080,-6189.23395390583,-3522.076670375745,13.042156516765624,[-6189.23395391 -3522.07667038    13.04215652],877,ROCKET BODY,SL-3 R/B,TTMTR,0,0,0,0.0,0.0,0.0,0.0,0.0,0.0,0.0
1 00877U 64053B   21336.36422748 -.00000015  00000-0  21984-4 0  9996,2 00877  65.0771 211.5256 0071547 204.2766 155.4957 14.59456419 39256,U,64,053,B,21,336.36422748,-1.5e-07,0.0,0.0,0,999,877,65.0771,211.5256,0.0071547,204.2766,155.4957,14.59456419,3925,2021-12-02 08:44:29.254272,-6088.311896903534,-3693.7201308754607,12.82482439130035,[-6088.3118969  -3693.72013088    12.82482439],877,ROCKET BODY,SL-3 R/B,TTMTR,0,0,0,0.0,0.0,0.0,0.0,0.0,0.0,0.0
1   877U 64053B   21336.09013199 -.00000020  00000-0  21045-4 0  9996,2   877  65.0771 212.3267 0071579 204.3713 155.3997 14.59456342 39219,U,64,053,B,21,336.09013199,-2e-07,0.0,0.0,0,999,877,65.0771,212.3267,0.0071579,204.3713,155.3997,14.59456342,3921,2021-12-02 02:09:47.403936,-6036.058535275768,-3778.480115190559,12.72688942582282,[-6036.05853528 -3778.48011519    12.72688943],877,ROCKET BODY,SL-3 R/B,TTMTR,0,0,0,0.0,0.0,0.0,0.0,0.0,0.0,0.0
1 00877U 64053B   21335.88456029 -.00000021  00000-0  20658-4 0  9995,2 00877  65.0772 212.9275 0071606 204.4449 155.3249 14.59456327 39182,U,64,053,B,21,335.88456029,-2.1e-07,0.0,0.0,0,999,877,65.0772,212.9275,0.0071606,204.4449,155.3249,14.59456327,3918,2021-12-01 21:13:46.009056,-5996.101020271478,-3841.5558057278768,12.631573062951741,[-5996.10102027 -3841.55580573    12.63157306],877,ROCKET BODY,SL-3 R/B,TTMTR,0,0,0,0.0,0.0,0.0,0.0,0.0,0.0,0.0
1 00877U 64053B   21335.40489305 -.00000014  00000-0  22090-4 0  9990,2 00877  65.0771 214.3292 0071646 204.6139 155.1536 14.59456308 39117,U,64,053,B,21,335.40489305,-1.4e-07,0.0,0.0,0,999,877,65.0771,214.3292,0.0071646,204.6139,155.1536,14.59456308,3911,2021-12-01 09:43:02.759520,-5900.3006872593,-3987.0679098755168,12.444255758246943,[-5900.30068726 -3987.06790988    12.44425576],877,ROCKET BODY,SL-3 R/B,TTMTR,0,0,0,0.0,0.0,0.0,0.0,0.0,0.0,0.0
1   877U 64053B   21335.06227369 -.00000036  00000-0  17662-4 0  9995,2   877  65.0770 215.3305 0071692 204.7417 155.0239 14.59456109 39065,U,64,053,B,21,335.06227369,-3.6e-07,0.0,0.0,0,999,877,65.077,215.3305,0.0071692,204.7417,155.0239,14.59456109,3906,2021-12-01 01:29:40.446816,-5829.710507629174,-4089.558501878,12.296810491314346,[-5829.71050763 -4089.55850188    12.29681049],877,ROCKET BODY,SL-3 R/B,TTMTR,0,0,0,0.0,0.0,0.0,0.0,0.0,0.0,0.0
1 00877U 64053B   21334.92522590 -.00000040  00000-0  16793-4 0  9992,2 00877  65.0770 215.7310 0071715 204.7915 154.9733 14.59456074 39040,U,64,053,B,21,334.9252259,-4e-07,0.0,0.0,0,999,877,65.077,215.731,0.0071715,204.7915,154.9733,14.59456074,3904,2021-11-30 22:12:19.517760,-5800.979874297551,-4130.205021447829,12.23299923653881,[-5800.9798743  -4130.20502145    12.23299924],877,ROCKET BODY,SL-3 R/B,TTMTR,0,0,0,0.0,0.0,0.0,0.0,0.0,0.0,0.0
1 00877U 64053B   21334.10293916 -.00000036  00000-0  17801-4 0  9995,2 00877  65.0771 218.1342 0071796 205.0836 154.6770 14.59456000 38921,U,64,053,B,21,334.10293916,-3.6e-07,0.0,0.0,0,999,877,65.0771,218.1342,0.0071796,205.0836,154.677,14.59456,3892,2021-11-30 02:28:13.943424,-5622.644361418717,-4369.784276957386,11.863516854936854,[-5622.64436142 -4369.78427696    11.86351685],877,ROCKET BODY,SL-3 R/B,TTMTR,0,0,0,0.0,0.0,0.0,0.0,0.0,0.0,0.0
1 00877U 64053B   21333.41770014 -.00000035  00000-0  17881-4 0  9994,2 00877  65.0773 220.1369 0071866 205.3290 154.4280 14.59455937 38821,U,64,053,B,21,333.41770014,-3.5e-07,0.0,0.0,0,999,877,65.0773,220.1369,0.0071866,205.329,154.428,14.59455937,3882,2021-11-29 10:01:29.292096,-5466.463745690442,-4563.576887095818,11.53253753779173,[-5466.46374569 -4563.5768871     11.53253754],877,ROCKET BODY,SL-3 R/B,TTMTR,0,0,0,0.0,0.0,0.0,0.0,0.0,0.0,0.0
1   877U 64053B   21333.14360456 -.00000043  00000-0  16277-4 0  9996,2   877  65.0773 220.9379 0071894 205.4209 154.3348 14.59455846 38780,U,64,053,B,21,333.14360456,-4.3e-07,0.0,0.0,0,999,877,65.0773,220.9379,0.0071894,205.4209,154.3348,14.59455846,3878,2021-11-29 03:26:47.433984,-5402.117577992967,-4639.541465640428,11.402558410703401,[-5402.11757799 -4639.54146564    11.40255841],877,ROCKET BODY,SL-3 R/B,TTMTR,0,0,0,0.0,0.0,0.0,0.0,0.0,0.0,0.0
1 00877U 64053B   21332.93803282 -.00000046  00000-0  15727-4 0  9993,2 00877  65.0773 221.5387 0071920 205.4892 154.2654 14.59455822 38754,U,64,053,B,21,332.93803282,-4.6e-07,0.0,0.0,0,999,877,65.0773,221.5387,0.007192,205.4892,154.2654,14.59455822,3875,2021-11-28 22:30:46.035648,-5353.166493100388,-4695.922985451851,11.29173040604655,[-5353.1664931  -4695.92298545    11.29173041],877,ROCKET BODY,SL-3 R/B,TTMTR,0,0,0,0.0,0.0,0.0,0.0,0.0,0.0,0.0
1   877U 64053B   21332.11574593 -.00000043  00000-0  16323-4 0  9993,2   877  65.0774 223.9418 0072005 205.7857 153.9647 14.59455709 38634,U,64,053,B,21,332.11574593,-4.3e-07,0.0,0.0,0,999,877,65.0774,223.9418,0.0072005,205.7857,153.9647,14.59455709,3863,2021-11-28 02:46:40.448352,-5151.510976692651,-4916.21461293093,10.880907644880233,[-5151.51097669 -4916.21461293    10.88090764],877,ROCKET BODY,SL-3 R/B,TTMTR,0,0,0,0.0,0.0,0.0,0.0,0.0,0.0,0.0
1 00877U 64053B   21331.43050685 -.00000037  00000-0  17500-4 0  9999,2 00877  65.0776 225.9445 0072077 206.0304 153.7164 14.59455625 38536,U,64,053,B,21,331.43050685,-3.7e-07,0.0,0.0,0,999,877,65.0776,225.9445,0.0072077,206.0304,153.7164,14.59455625,3853,2021-11-27 10:19:55.791840,-4976.524666149817,-5093.204300573407,10.509412534277695,[-4976.52466615 -5093.20430057    10.50941253],877,ROCKET BODY,SL-3 R/B,TTMTR,0,0,0,0.0,0.0,0.0,0.0,0.0,0.0,0.0
1   877U 64053B   21330.67674380 -.00000030  00000-0  18842-4 0  9991,2   877  65.0777 228.1474 0072156 206.2919 153.4512 14.59455538 38421,U,64,053,B,21,330.6767438,-3e-07,0.0,0.0,0,999,877,65.0777,228.1474,0.0072156,206.2919,153.4512,14.59455538,3842,2021-11-26 16:14:30.664320,-4777.0306989684,-5280.696537780683,10.10337418510985,[-4777.03069897 -5280.69653778    10.10337419],877,ROCKET BODY,SL-3 R/B,TTMTR,0,0,0,0.0,0.0,0.0,0.0,0.0,0.0,0.0
